{"type": "FeatureCollection", "features": [ {"type": "Feature", "properties": {"norad_id": 44476, "name": "INTELSAT 39 (IS-39)", "group": "intelsat", "lat": 0.0188246466568951, "lon": -3.520436475565679, "alt_km": 35789.777345661525, "timestamp": "2025-12-06T14:35:36.795394+00:00", "meta": {"OBJECT_NAME": "INTELSAT 39 (IS-39)", "OBJECT_ID": "2019-049B", "EPOCH": "2025-12-06T05:23:59.579232", "MEAN_MOTION": 1.0027014, "ECCENTRICITY": 8.181e-05, "INCLINATION": 0.0171, "RA_OF_ASC_NODE": 327.3545, "ARG_OF_PERICENTER": 190.9753, "MEAN_ANOMALY": 59.8838, "EPHEMERIS_TYPE": 0, "CLASSIFICATION_TYPE": "U", "NORAD_CAT_ID": 44476, "ELEMENT_SET_NO": 999, "REV_AT_EPOCH": 2319, "BSTAR": 0, "MEAN_MOTION_DOT": 4.2e-07, "MEAN_MOTION_DDOT": 0}, "tle": {"line1": "1 44476U 19049B   25340.22499513  .00000042  00000+0  00000+0 0  9991", "line2": "2 44476   0.0171 327.3545 0000818 190.9753  59.8838  1.00270140 23197"}}, "geometry": {"type": "Point", "coordinates": [-3.520436475565679, 0.0188246466568951]}}, {"type": "Feature", "properties": {"norad_id": 46114, "name": "GALAXY 30 (G-30)", "group": "intelsat", "lat": -0.008629706793548441, "lon": 169.50627882524336, "alt_km": 35785.24215415676, "timestamp": "2025-12-06T14:35:36.795405+00:00", "meta": {"OBJECT_NAME": "GALAXY 30 (G-30)", "OBJECT_ID": "2020-056C", "EPOCH": "2025-12-06T06:13:24.843648", "MEAN_MOTION": 1.0027024, "ECCENTRICITY": 0.00024879, "INCLINATION": 0.016, "RA_OF_ASC_NODE": 339.3733, "ARG_OF_PERICENTER": 273.2782, "MEAN_ANOMALY": 151.0031, "EPHEMERIS_TYPE": 0, "CLASSIFICATION_TYPE": "U", "NORAD_CAT_ID": 46114, "ELEMENT_SET_NO": 999, "REV_AT_EPOCH": 1935, "BSTAR": 0, "MEAN_MOTION_DOT": 4.5e-07, "MEAN_MOTION_DDOT": 0}, "tle": {"line1": "1 46114U 20056C   25340.25931532  .00000045  00000+0  00000+0 0  9990", "line2": "2 46114   0.0160 339.3733 0002487 273.2782 151.0031  1.00270240 19353"}}, "geometry": {"type": "Point", "coordinates": [169.50627882524336, -0.008629706793548441]}}, {"type": "Feature", "properties": {"norad_id": 54026, "name": "GALAXY 33 (G-33)", "group": "intelsat", "lat": 0.013481371452663152, "lon": 161.5097320621923, "alt_km": 35786.407707438375, "timestamp": "2025-12-06T14:35:36.795416+00:00", "meta": {"OBJECT_NAME": "GALAXY 33 (G-33)", "OBJECT_ID": "2022-128A", "EPOCH": "2025-12-06T05:54:31.029408", "MEAN_MOTION": 1.00269982, "ECCENTRICITY": 0.00022492, "INCLINATION": 0.0173, "RA_OF_ASC_NODE": 36.0908, "ARG_OF_PERICENTER": 214.4821, "MEAN_ANOMALY": 140.3457, "EPHEMERIS_TYPE": 0, "CLASSIFICATION_TYPE": "U", "NORAD_CAT_ID": 54026, "ELEMENT_SET_NO": 999, "REV_AT_EPOCH": 1180, "BSTAR": 0, "MEAN_MOTION_DOT": 8.7e-07, "MEAN_MOTION_DDOT": 0}, "tle": {"line1": "1 54026U 22128A   25340.24619247  .00000087  00000+0  00000+0 0  9994", "line2": "2 54026   0.0173  36.0908 0002249 214.4821 140.3457  1.00269982 11806"}}, "geometry": {"type": "Point", "coordinates": [161.5097320621923, 0.013481371452663152]}}, {"type": "Feature", "properties": {"norad_id": 54027, "name": "GALAXY 34 (G-34)", "group": "intelsat", "lat": -0.004737176660047995, "lon": 165.5804151321786, "alt_km": 35785.8422696019, "timestamp": "2025-12-06T14:35:36.795428+00:00", "meta": {"OBJECT_NAME": "GALAXY 34 (G-34)", "OBJECT_ID": "2022-128B", "EPOCH": "2025-12-06T05:56:29.506272", "MEAN_MOTION": 1.00269731, "ECCENTRICITY": 0.00013375, "INCLINATION": 0.0207, "RA_OF_ASC_NODE": 342.5659, "ARG_OF_PERICENTER": 264.9149, "MEAN_ANOMALY": 147.9933, "EPHEMERIS_TYPE": 0, "CLASSIFICATION_TYPE": "U", "NORAD_CAT_ID": 54027, "ELEMENT_SET_NO": 999, "REV_AT_EPOCH": 1197, "BSTAR": 0, "MEAN_MOTION_DOT": 0, "MEAN_MOTION_DDOT": 0}, "tle": {"line1": "1 54027U 22128B   25340.24756373  .00000000  00000+0  00000+0 0  9992", "line2": "2 54027   0.0207 342.5659 0001337 264.9149 147.9933  1.00269731 11975"}}, "geometry": {"type": "Point", "coordinates": [165.5804151321786, -0.004737176660047995]}}, {"type": "Feature", "properties": {"norad_id": 54243, "name": "GALAXY 31 (G-31)", "group": "intelsat", "lat": 0.0017032050201306913, "lon": 173.51565478219575, "alt_km": 35786.76632674876, "timestamp": "2025-12-06T14:35:36.795439+00:00", "meta": {"OBJECT_NAME": "GALAXY 31 (G-31)", "OBJECT_ID": "2022-153A", "EPOCH": "2025-12-06T06:14:32.237376", "MEAN_MOTION": 1.00270777, "ECCENTRICITY": 0.00019728, "INCLINATION": 0.0101, "RA_OF_ASC_NODE": 58.837, "ARG_OF_PERICENTER": 207.6603, "MEAN_ANOMALY": 141.4417, "EPHEMERIS_TYPE": 0, "CLASSIFICATION_TYPE": "U", "NORAD_CAT_ID": 54243, "ELEMENT_SET_NO": 999, "REV_AT_EPOCH": 519, "BSTAR": 0, "MEAN_MOTION_DOT": 2.1e-07, "MEAN_MOTION_DDOT": 0}, "tle": {"line1": "1 54243U 22153A   25340.26009534  .00000021  00000+0  00000+0 0  9995", "line2": "2 54243   0.0101  58.8370 0001972 207.6603 141.4417  1.00270777  5194"}}, "geometry": {"type": "Point", "coordinates": [173.51565478219575, 0.0017032050201306913]}}, {"type": "Feature", "properties": {"norad_id": 54244, "name": "GALAXY 32 (G-32)", "group": "intelsat", "lat": -0.02441172716236521, "lon": -156.4515423429099, "alt_km": 35786.050548779516, "timestamp": "2025-12-06T14:35:36.795451+00:00", "meta": {"OBJECT_NAME": "GALAXY 32 (G-32)", "OBJECT_ID": "2022-153B", "EPOCH": "2025-12-04T13:17:37.099104", "MEAN_MOTION": 1.00275803, "ECCENTRICITY": 0.00027886, "INCLINATION": 0.0107, "RA_OF_ASC_NODE": 343.0801, "ARG_OF_PERICENTER": 315.5746, "MEAN_ANOMALY": 243.3847, "EPHEMERIS_TYPE": 0, "CLASSIFICATION_TYPE": "U", "NORAD_CAT_ID": 54244, "ELEMENT_SET_NO": 999, "REV_AT_EPOCH": 1119, "BSTAR": 0, "MEAN_MOTION_DOT": -1.6e-06, "MEAN_MOTION_DDOT": 0}, "tle": {"line1": "1 54244U 22153B   25338.55390161 -.00000160  00000+0  00000+0 0  9999", "line2": "2 54244   0.0107 343.0801 0002788 315.5746 243.3847  1.00275803 11193"}}, "geometry": {"type": "Point", "coordinates": [-156.4515423429099, -0.02441172716236521]}}, {"type": "Feature", "properties": {"norad_id": 54741, "name": "GALAXY 35 (G-35)", "group": "intelsat", "lat": -0.008784562594150794, "lon": -158.57912524658332, "alt_km": 35780.72931252807, "timestamp": "2025-12-06T14:35:36.795462+00:00", "meta": {"OBJECT_NAME": "GALAXY 35 (G-35)", "OBJECT_ID": "2022-170A", "EPOCH": "2025-12-06T06:22:31.471392", "MEAN_MOTION": 1.00271232, "ECCENTRICITY": 0.00027351, "INCLINATION": 0.0155, "RA_OF_ASC_NODE": 29.9564, "ARG_OF_PERICENTER": 233.065, "MEAN_ANOMALY": 174.8296, "EPHEMERIS_TYPE": 0, "CLASSIFICATION_TYPE": "U", "NORAD_CAT_ID": 54741, "ELEMENT_SET_NO": 999, "REV_AT_EPOCH": 1095, "BSTAR": 0, "MEAN_MOTION_DOT": -1.54e-06, "MEAN_MOTION_DDOT": 0}, "tle": {"line1": "1 54741U 22170A   25340.26564203 -.00000154  00000+0  00000+0 0  9994", "line2": "2 54741   0.0155  29.9564 0002735 233.0650 174.8296  1.00271232 10955"}}, "geometry": {"type": "Point", "coordinates": [-158.57912524658332, -0.008784562594150794]}}, {"type": "Feature", "properties": {"norad_id": 54742, "name": "GALAXY 36 (G-36)", "group": "intelsat", "lat": -0.03029456646387946, "lon": -154.48275850649196, "alt_km": 35785.45087657663, "timestamp": "2025-12-06T14:35:36.795474+00:00", "meta": {"OBJECT_NAME": "GALAXY 36 (G-36)", "OBJECT_ID": "2022-170B", "EPOCH": "2025-12-06T06:23:38.864256", "MEAN_MOTION": 1.00269678, "ECCENTRICITY": 6.459e-05, "INCLINATION": 0.0128, "RA_OF_ASC_NODE": 332.5685, "ARG_OF_PERICENTER": 295.905, "MEAN_ANOMALY": 173.7364, "EPHEMERIS_TYPE": 0, "CLASSIFICATION_TYPE": "U", "NORAD_CAT_ID": 54742, "ELEMENT_SET_NO": 999, "REV_AT_EPOCH": 1083, "BSTAR": 0, "MEAN_MOTION_DOT": 0, "MEAN_MOTION_DDOT": 0}, "tle": {"line1": "1 54742U 22170B   25340.26642204  .00000000  00000+0  00000+0 0  9992", "line2": "2 54742   0.0128 332.5685 0000645 295.9050 173.7364  1.00269678 10834"}}, "geometry": {"type": "Point", "coordinates": [-154.48275850649196, -0.03029456646387946]}}, {"type": "Feature", "properties": {"norad_id": 57493, "name": "GALAXY 37 (G-37)", "group": "intelsat", "lat": -0.009895408873763764, "lon": 167.51269221150392, "alt_km": 35786.794094971694, "timestamp": "2025-12-06T14:35:36.795485+00:00", "meta": {"OBJECT_NAME": "GALAXY 37 (G-37)", "OBJECT_ID": "2023-112A", "EPOCH": "2025-12-06T06:12:47.403936", "MEAN_MOTION": 1.00270343, "ECCENTRICITY": 0.00024156, "INCLINATION": 0.0105, "RA_OF_ASC_NODE": 329.3224, "ARG_OF_PERICENTER": 290.0794, "MEAN_ANOMALY": 142.102, "EPHEMERIS_TYPE": 0, "CLASSIFICATION_TYPE": "U", "NORAD_CAT_ID": 57493, "ELEMENT_SET_NO": 999, "REV_AT_EPOCH": 860, "BSTAR": 0, "MEAN_MOTION_DOT": 5.6e-07, "MEAN_MOTION_DDOT": 0}, "tle": {"line1": "1 57493U 23112A   25340.25888199  .00000056  00000+0  00000+0 0  9990", "line2": "2 57493   0.0105 329.3224 0002415 290.0794 142.1020  1.00270343  8608"}}, "geometry": {"type": "Point", "coordinates": [167.51269221150392, -0.009895408873763764]}}]}